{"type": "FeatureCollection", "features": [ {"type": "Feature", "properties": {"norad_id": 66500, "name": "STARLINK-35894", "group": "last-30-days", "lat": 12.071784270895883, "lon": -26.856937615708443, "alt_km": 389.57119493630853, "timestamp": "2025-12-05T16:54:13.485854+00:00", "meta": {"OBJECT_NAME": "STARLINK-35894", "OBJECT_ID": "2025-263R", "EPOCH": "2025-12-05T06:00:02.000160", "MEAN_MOTION": 15.6132269, "ECCENTRICITY": 0.00013094, "INCLINATION": 42.9991, "RA_OF_ASC_NODE": 169.1075, "ARG_OF_PERICENTER": 272.2296, "MEAN_ANOMALY": 215.3375, "EPHEMERIS_TYPE": 0, "CLASSIFICATION_TYPE": "U", "NORAD_CAT_ID": 66500, "ELEMENT_SET_NO": 999, "REV_AT_EPOCH": 443, "BSTAR": -0.033210048, "MEAN_MOTION_DOT": -0.02523154, "MEAN_MOTION_DDOT": 0}, "tle": {"line1": "1 66500U 25263R   25339.25002315 -.02523154  00000+0 -33210-1 0  9998", "line2": "2 66500  42.9991 169.1075 0001309 272.2296 215.3375 15.61322690  4437"}}, "geometry": {"type": "Point", "coordinates": [-26.856937615708443, 12.071784270895883]}}, {"type": "Feature", "properties": {"norad_id": 66501, "name": "STARLINK-35897", "group": "last-30-days", "lat": -1.335522005990019, "lon": -12.203910075125572, "alt_km": 383.90371857019454, "timestamp": "2025-12-05T16:54:13.485865+00:00", "meta": {"OBJECT_NAME": "STARLINK-35897", "OBJECT_ID": "2025-263S", "EPOCH": "2025-12-05T06:00:02.000160", "MEAN_MOTION": 15.63832856, "ECCENTRICITY": 0.00020195, "INCLINATION": 42.9992, "RA_OF_ASC_NODE": 169.0691, "ARG_OF_PERICENTER": 304.3318, "MEAN_ANOMALY": 198.6772, "EPHEMERIS_TYPE": 0, "CLASSIFICATION_TYPE": "U", "NORAD_CAT_ID": 66501, "ELEMENT_SET_NO": 999, "REV_AT_EPOCH": 443, "BSTAR": -0.026237661, "MEAN_MOTION_DOT": -0.02240034, "MEAN_MOTION_DDOT": 0}, "tle": {"line1": "1 66501U 25263S   25339.25002315 -.02240034  00000+0 -26238-1 0  9994", "line2": "2 66501  42.9992 169.0691 0002019 304.3318 198.6772 15.63832856  4439"}}, "geometry": {"type": "Point", "coordinates": [-12.203910075125572, -1.335522005990019]}}, {"type": "Feature", "properties": {"norad_id": 66502, "name": "STARLINK-35922", "group": "last-30-days", "lat": -5.157108069516855, "lon": -8.09439876410491, "alt_km": 382.5449565250656, "timestamp": "2025-12-05T16:54:13.485876+00:00", "meta": {"OBJECT_NAME": "STARLINK-35922", "OBJECT_ID": "2025-263T", "EPOCH": "2025-12-05T06:00:02.000160", "MEAN_MOTION": 15.63873664, "ECCENTRICITY": 0.00013804, "INCLINATION": 42.9992, "RA_OF_ASC_NODE": 169.0546, "ARG_OF_PERICENTER": 267.1799, "MEAN_ANOMALY": 241.244, "EPHEMERIS_TYPE": 0, "CLASSIFICATION_TYPE": "U", "NORAD_CAT_ID": 66502, "ELEMENT_SET_NO": 999, "REV_AT_EPOCH": 443, "BSTAR": -0.024228697, "MEAN_MOTION_DOT": -0.02050349, "MEAN_MOTION_DDOT": 0}, "tle": {"line1": "1 66502U 25263T   25339.25002315 -.02050349  00000+0 -24229-1 0  9991", "line2": "2 66502  42.9992 169.0546 0001380 267.1799 241.2440 15.63873664  4437"}}, "geometry": {"type": "Point", "coordinates": [-8.09439876410491, -5.157108069516855]}}, {"type": "Feature", "properties": {"norad_id": 66503, "name": "STARLINK-35917", "group": "last-30-days", "lat": -7.750339552419366, "lon": -5.263327110008031, "alt_km": 382.8511566430816, "timestamp": "2025-12-05T16:54:13.485885+00:00", "meta": {"OBJECT_NAME": "STARLINK-35917", "OBJECT_ID": "2025-263U", "EPOCH": "2025-12-05T06:00:02.000160", "MEAN_MOTION": 15.63880889, "ECCENTRICITY": 0.00014504, "INCLINATION": 42.9994, "RA_OF_ASC_NODE": 169.0453, "ARG_OF_PERICENTER": 270.3996, "MEAN_ANOMALY": 241.8552, "EPHEMERIS_TYPE": 0, "CLASSIFICATION_TYPE": "U", "NORAD_CAT_ID": 66503, "ELEMENT_SET_NO": 999, "REV_AT_EPOCH": 443, "BSTAR": -0.024348596, "MEAN_MOTION_DOT": -0.02059782, "MEAN_MOTION_DDOT": 0}, "tle": {"line1": "1 66503U 25263U   25339.25002315 -.02059782  00000+0 -24349-1 0  9995", "line2": "2 66503  42.9994 169.0453 0001450 270.3996 241.8552 15.63880889  4437"}}, "geometry": {"type": "Point", "coordinates": [-5.263327110008031, -7.750339552419366]}}, {"type": "Feature", "properties": {"norad_id": 66504, "name": "STARLINK-35916", "group": "last-30-days", "lat": -16.890165065347897, "lon": 6.209393695033116, "alt_km": 430.1085706101121, "timestamp": "2025-12-05T16:54:13.485895+00:00", "meta": {"OBJECT_NAME": "STARLINK-35916", "OBJECT_ID": "2025-263V", "EPOCH": "2025-12-05T06:00:02.000160", "MEAN_MOTION": 15.47809689, "ECCENTRICITY": 0.00013926, "INCLINATION": 42.9997, "RA_OF_ASC_NODE": 169.8353, "ARG_OF_PERICENTER": 261.0612, "MEAN_ANOMALY": 291.3465, "EPHEMERIS_TYPE": 0, "CLASSIFICATION_TYPE": "U", "NORAD_CAT_ID": 66504, "ELEMENT_SET_NO": 999, "REV_AT_EPOCH": 443, "BSTAR": -0.043472499, "MEAN_MOTION_DOT": -0.02057396, "MEAN_MOTION_DDOT": 0}, "tle": {"line1": "1 66504U 25263V   25339.25002315 -.02057396  00000+0 -43472-1 0  9993", "line2": "2 66504  42.9997 169.8353 0001392 261.0612 291.3465 15.47809689  4439"}}, "geometry": {"type": "Point", "coordinates": [6.209393695033116, -16.890165065347897]}}, {"type": "Feature", "properties": {"norad_id": 66505, "name": "STARLINK-34766", "group": "last-30-days", "lat": -2.5504185938737973, "lon": -10.902982640502968, "alt_km": 382.3179741641288, "timestamp": "2025-12-05T16:54:13.485904+00:00", "meta": {"OBJECT_NAME": "STARLINK-34766", "OBJECT_ID": "2025-263W", "EPOCH": "2025-12-05T06:00:02.000160", "MEAN_MOTION": 15.63880371, "ECCENTRICITY": 0.00013777, "INCLINATION": 42.999, "RA_OF_ASC_NODE": 169.0643, "ARG_OF_PERICENTER": 267.4451, "MEAN_ANOMALY": 237.141, "EPHEMERIS_TYPE": 0, "CLASSIFICATION_TYPE": "U", "NORAD_CAT_ID": 66505, "ELEMENT_SET_NO": 999, "REV_AT_EPOCH": 443, "BSTAR": -0.024330319, "MEAN_MOTION_DOT": -0.02058337, "MEAN_MOTION_DDOT": 0}, "tle": {"line1": "1 66505U 25263W   25339.25002315 -.02058337  00000+0 -24330-1 0  9992", "line2": "2 66505  42.9990 169.0643 0001377 267.4451 237.1410 15.63880371  4434"}}, "geometry": {"type": "Point", "coordinates": [-10.902982640502968, -2.5504185938737973]}}, {"type": "Feature", "properties": {"norad_id": 66506, "name": "STARLINK-34765", "group": "last-30-days", "lat": -3.854360380003589, "lon": -9.500816864825401, "alt_km": 382.5141089129547, "timestamp": "2025-12-05T16:54:13.485913+00:00", "meta": {"OBJECT_NAME": "STARLINK-34765", "OBJECT_ID": "2025-263X", "EPOCH": "2025-12-05T06:00:02.000160", "MEAN_MOTION": 15.6388285, "ECCENTRICITY": 0.00014381, "INCLINATION": 42.9991, "RA_OF_ASC_NODE": 169.0601, "ARG_OF_PERICENTER": 270.515, "MEAN_ANOMALY": 235.9856, "EPHEMERIS_TYPE": 0, "CLASSIFICATION_TYPE": "U", "NORAD_CAT_ID": 66506, "ELEMENT_SET_NO": 999, "REV_AT_EPOCH": 443, "BSTAR": -0.024349547, "MEAN_MOTION_DOT": -0.02059984, "MEAN_MOTION_DDOT": 0}, "tle": {"line1": "1 66506U 25263X   25339.25002315 -.02059984  00000+0 -24350-1 0  9994", "line2": "2 66506  42.9991 169.0601 0001438 270.5150 235.9856 15.63882850  4433"}}, "geometry": {"type": "Point", "coordinates": [-9.500816864825401, -3.854360380003589]}}, {"type": "Feature", "properties": {"norad_id": 66507, "name": "STARLINK-34767", "group": "last-30-days", "lat": -6.455258533559212, "lon": -6.68360892342357, "alt_km": 382.7373016424317, "timestamp": "2025-12-05T16:54:13.485921+00:00", "meta": {"OBJECT_NAME": "STARLINK-34767", "OBJECT_ID": "2025-263Y", "EPOCH": "2025-12-05T06:00:02.000160", "MEAN_MOTION": 15.6387498, "ECCENTRICITY": 0.00014632, "INCLINATION": 42.9993, "RA_OF_ASC_NODE": 169.0493, "ARG_OF_PERICENTER": 270.1362, "MEAN_ANOMALY": 240.2066, "EPHEMERIS_TYPE": 0, "CLASSIFICATION_TYPE": "U", "NORAD_CAT_ID": 66507, "ELEMENT_SET_NO": 999, "REV_AT_EPOCH": 443, "BSTAR": -0.024286857, "MEAN_MOTION_DOT": -0.02054808, "MEAN_MOTION_DDOT": 0}, "tle": {"line1": "1 66507U 25263Y   25339.25002315 -.02054808  00000+0 -24287-1 0  9994", "line2": "2 66507  42.9993 169.0493 0001463 270.1362 240.2066 15.63874980  4431"}}, "geometry": {"type": "Point", "coordinates": [-6.68360892342357, -6.455258533559212]}}, {"type": "Feature", "properties": {"norad_id": 66508, "name": "STARLINK-35608", "group": "last-30-days", "lat": -10.324873448031484, "lon": -2.3969042256471433, "alt_km": 383.03514624184754, "timestamp": "2025-12-05T16:54:13.485930+00:00", "meta": {"OBJECT_NAME": "STARLINK-35608", "OBJECT_ID": "2025-263Z", "EPOCH": "2025-12-05T06:00:02.000160", "MEAN_MOTION": 15.63879236, "ECCENTRICITY": 0.00014643, "INCLINATION": 42.9996, "RA_OF_ASC_NODE": 169.0359, "ARG_OF_PERICENTER": 269.6969, "MEAN_ANOMALY": 246.3933, "EPHEMERIS_TYPE": 0, "CLASSIFICATION_TYPE": "U", "NORAD_CAT_ID": 66508, "ELEMENT_SET_NO": 999, "REV_AT_EPOCH": 443, "BSTAR": -0.024332033, "MEAN_MOTION_DOT": -0.02058451, "MEAN_MOTION_DDOT": 0}, "tle": {"line1": "1 66508U 25263Z   25339.25002315 -.02058451  00000+0 -24332-1 0  9994", "line2": "2 66508  42.9996 169.0359 0001464 269.6969 246.3933 15.63879236  4432"}}, "geometry": {"type": "Point", "coordinates": [-2.3969042256471433, -10.324873448031484]}}, {"type": "Feature", "properties": {"norad_id": 66509, "name": "STARLINK-35598", "group": "last-30-days", "lat": -15.389815694355178, "lon": 3.4883819429564284, "alt_km": 383.2682450633747, "timestamp": "2025-12-05T16:54:13.485939+00:00", "meta": {"OBJECT_NAME": "STARLINK-35598", "OBJECT_ID": "2025-263AA", "EPOCH": "2025-12-05T06:00:02.000160", "MEAN_MOTION": 15.63877562, "ECCENTRICITY": 0.0001385, "INCLINATION": 42.9994, "RA_OF_ASC_NODE": 169.0144, "ARG_OF_PERICENTER": 264.3477, "MEAN_ANOMALY": 259.4065, "EPHEMERIS_TYPE": 0, "CLASSIFICATION_TYPE": "U", "NORAD_CAT_ID": 66509, "ELEMENT_SET_NO": 999, "REV_AT_EPOCH": 443, "BSTAR": -0.0242368, "MEAN_MOTION_DOT": -0.0205123, "MEAN_MOTION_DDOT": 0}, "tle": {"line1": "1 66509U 25263AA  25339.25002315 -.02051230  00000+0 -24237-1 0  9997", "line2": "2 66509  42.9994 169.0144 0001385 264.3477 259.4065 15.63877562  4432"}}, "geometry": {"type": "Point", "coordinates": [3.4883819429564284, -15.389815694355178]}}]}